<?xml version="1.0" encoding="UTF-8"?>
<ndm xmlns:xsi="https://www.w3.org/2001/XMLSchema-instance" xsi:noNamespaceSchemaLocation="https://sanaregistry.org/r/ndmxml/ndmxml-1.0-master.xsd">
<omm id="CCSDS_OMM_VERS" version="2.0">
<header><CREATION_DATE/><ORIGINATOR/></header><body><segment><metadata><OBJECT_NAME>VANGUARD 1</OBJECT_NAME><OBJECT_ID>1958-002B</OBJECT_ID><CENTER_NAME>EARTH</CENTER_NAME><REF_FRAME>TEME</REF_FRAME><TIME_SYSTEM>UTC</TIME_SYSTEM><MEAN_ELEMENT_THEORY>SGP4</MEAN_ELEMENT_THEORY></metadata><data><meanElements><EPOCH>2020-10-13T04:52:48.472320</EPOCH><MEAN_MOTION>10.84869164</MEAN_MOTION><ECCENTRICITY>.1845686</ECCENTRICITY><INCLINATION>34.2443</INCLINATION><RA_OF_ASC_NODE>225.5254</RA_OF_ASC_NODE><ARG_OF_PERICENTER>162.2516</ARG_OF_PERICENTER><MEAN_ANOMALY>205.2356</MEAN_ANOMALY></meanElements><tleParameters><EPHEMERIS_TYPE>0</EPHEMERIS_TYPE><CLASSIFICATION_TYPE>U</CLASSIFICATION_TYPE><NORAD_CAT_ID>5</NORAD_CAT_ID><ELEMENT_SET_NO>999</ELEMENT_SET_NO><REV_AT_EPOCH>21814</REV_AT_EPOCH><BSTAR>-.22483E-4</BSTAR><MEAN_MOTION_DOT>-1.6E-7</MEAN_MOTION_DOT><MEAN_MOTION_DDOT>0</MEAN_MOTION_DDOT></tleParameters></data></segment></body></omm>
</ndm>
